{
  "type": "FeatureCollection",
  "features": [
    {
      "type": "Feature",
      "properties": {
        "norad_id": 37330,
        "name": "COSMOS 2251 DEB",
        "group": "cosmos-2251-debris",
        "lat": -26.48309573482793,
        "lon": -93.62685678974316,
        "alt_km": 733.8145492424237,
        "timestamp": "2025-12-23T11:34:48.557922+00:00",
        "meta_object_name": "COSMOS 2251 DEB",
        "meta_object_id": "1993-036BKW",
        "meta_epoch": "2025-12-20T12:58:19.659648",
        "meta_mean_motion": 14.5955958,
        "meta_eccentricity": 0.0056796,
        "meta_inclination": 74.0188,
        "meta_ra_of_asc_node": 280.1955,
        "meta_arg_of_pericenter": 126.4731,
        "meta_mean_anomaly": 234.1688,
        "meta_ephemeris_type": 0,
        "meta_classification_type": "U",
        "meta_norad_cat_id": 37330,
        "meta_element_set_no": 999,
        "meta_rev_at_epoch": 86482,
        "meta_bstar": 0.000194,
        "meta_mean_motion_dot": 9.12e-06,
        "meta_mean_motion_ddot": 0,
        "tle_line1": "1 37330U 93036BKW 25354.54050532  .00000912  00000+0  19400-3 0  9998",
        "tle_line2": "2 37330  74.0188 280.1955 0056796 126.4731 234.1688 14.59559580864824"
      },
      "geometry": {
        "type": "Point",
        "coordinates": [
          -93.62685678974316,
          -26.48309573482793
        ]
      }
    },
    {
      "type": "Feature",
      "properties": {
        "norad_id": 37331,
        "name": "COSMOS 2251 DEB",
        "group": "cosmos-2251-debris",
        "lat": -45.740421153618534,
        "lon": -114.73734980205748,
        "alt_km": 820.0923245006643,
        "timestamp": "2025-12-23T11:34:48.557930+00:00",
        "meta_object_name": "COSMOS 2251 DEB",
        "meta_object_id": "1993-036BKX",
        "meta_epoch": "2025-12-20T20:37:09.916320",
        "meta_mean_motion": 14.35041344,
        "meta_eccentricity": 0.0055285,
        "meta_inclination": 74.0747,
        "meta_ra_of_asc_node": 53.0207,
        "meta_arg_of_pericenter": 64.7623,
        "meta_mean_anomaly": 295.9246,
        "meta_ephemeris_type": 0,
        "meta_classification_type": "U",
        "meta_norad_cat_id": 37331,
        "meta_element_set_no": 999,
        "meta_rev_at_epoch": 84876,
        "meta_bstar": 0.00030498,
        "meta_mean_motion_dot": 8.59e-06,
        "meta_mean_motion_ddot": 0,
        "tle_line1": "1 37331U 93036BKX 25354.85914255  .00000859  00000+0  30498-3 0  9994",
        "tle_line2": "2 37331  74.0747  53.0207 0055285  64.7623 295.9246 14.35041344848767"
      },
      "geometry": {
        "type": "Point",
        "coordinates": [
          -114.73734980205748,
          -45.740421153618534
        ]
      }
    },
    {
      "type": "Feature",
      "properties": {
        "norad_id": 37336,
        "name": "COSMOS 2251 DEB",
        "group": "cosmos-2251-debris",
        "lat": 55.53606330400041,
        "lon": 106.96550006935236,
        "alt_km": 778.4225773367598,
        "timestamp": "2025-12-23T11:34:48.557939+00:00",
        "meta_object_name": "COSMOS 2251 DEB",
        "meta_object_id": "1993-036BLC",
        "meta_epoch": "2025-12-17T07:33:13.175712",
        "meta_mean_motion": 14.32760586,
        "meta_eccentricity": 0.00290162,
        "meta_inclination": 74.0414,
        "meta_ra_of_asc_node": 322.8603,
        "meta_arg_of_pericenter": 39.1846,
        "meta_mean_anomaly": 321.1399,
        "meta_ephemeris_type": 0,
        "meta_classification_type": "U",
        "meta_norad_cat_id": 37336,
        "meta_element_set_no": 999,
        "meta_rev_at_epoch": 65185,
        "meta_bstar": 6.9199726e-05,
        "meta_mean_motion_dot": 1.63e-06,
        "meta_mean_motion_ddot": 0,
        "tle_line1": "1 37336U 93036BLC 25351.31473583  .00000163  00000+0  69200-4 0  9993",
        "tle_line2": "2 37336  74.0414 322.8603 0029016  39.1846 321.1399 14.32760586651852"
      },
      "geometry": {
        "type": "Point",
        "coordinates": [
          106.96550006935236,
          55.53606330400041
        ]
      }
    },
    {
      "type": "Feature",
      "properties": {
        "norad_id": 37340,
        "name": "COSMOS 2251 DEB",
        "group": "cosmos-2251-debris",
        "lat": 36.26340894555267,
        "lon": 65.26357427419795,
        "alt_km": 777.1576575736635,
        "timestamp": "2025-12-23T11:34:48.557948+00:00",
        "meta_object_name": "COSMOS 2251 DEB",
        "meta_object_id": "1993-036BLG",
        "meta_epoch": "2025-12-19T03:19:36.196032",
        "meta_mean_motion": 14.36930541,
        "meta_eccentricity": 0.00180628,
        "meta_inclination": 74.0254,
        "meta_ra_of_asc_node": 265.3825,
        "meta_arg_of_pericenter": 358.9051,
        "meta_mean_anomaly": 1.206,
        "meta_ephemeris_type": 0,
        "meta_classification_type": "U",
        "meta_norad_cat_id": 37340,
        "meta_element_set_no": 999,
        "meta_rev_at_epoch": 84159,
        "meta_bstar": 0.00014760605,
        "meta_mean_motion_dot": 4.11e-06,
        "meta_mean_motion_ddot": 0,
        "tle_line1": "1 37340U 93036BLG 25353.13861338  .00000411  00000+0  14761-3 0  9996",
        "tle_line2": "2 37340  74.0254 265.3825 0018062 358.9051   1.2060 14.36930541841592"
      },
      "geometry": {
        "type": "Point",
        "coordinates": [
          65.26357427419795,
          36.26340894555267
        ]
      }
    },
    {
      "type": "Feature",
      "properties": {
        "norad_id": 37483,
        "name": "COSMOS 2251 DEB",
        "group": "cosmos-2251-debris",
        "lat": 27.79726039274401,
        "lon": -65.42233038398706,
        "alt_km": 811.7571307597291,
        "timestamp": "2025-12-23T11:34:48.557957+00:00",
        "meta_object_name": "COSMOS 2251 DEB",
        "meta_object_id": "1993-036BLL",
        "meta_epoch": "2025-12-23T02:33:52.748064",
        "meta_mean_motion": 14.43571183,
        "meta_eccentricity": 0.0093608,
        "meta_inclination": 73.974,
        "meta_ra_of_asc_node": 123.9935,
        "meta_arg_of_pericenter": 328.1601,
        "meta_mean_anomaly": 31.3916,
        "meta_ephemeris_type": 0,
        "meta_classification_type": "U",
        "meta_norad_cat_id": 37483,
        "meta_element_set_no": 999,
        "meta_rev_at_epoch": 65429,
        "meta_bstar": 0.000203,
        "meta_mean_motion_dot": 6.96e-06,
        "meta_mean_motion_ddot": 0,
        "tle_line1": "1 37483U 93036BLL 25357.10686051  .00000696  00000+0  20300-3 0  9993",
        "tle_line2": "2 37483  73.9740 123.9935 0093608 328.1601  31.3916 14.43571183654292"
      },
      "geometry": {
        "type": "Point",
        "coordinates": [
          -65.42233038398706,
          27.79726039274401
        ]
      }
    },
    {
      "type": "Feature",
      "properties": {
        "norad_id": 37484,
        "name": "COSMOS 2251 DEB",
        "group": "cosmos-2251-debris",
        "lat": -26.411272243752215,
        "lon": 179.9870965769562,
        "alt_km": 767.8737533814719,
        "timestamp": "2025-12-23T11:34:48.557966+00:00",
        "meta_object_name": "COSMOS 2251 DEB",
        "meta_object_id": "1993-036BLM",
        "meta_epoch": "2025-12-18T07:38:27.570624",
        "meta_mean_motion": 14.41807924,
        "meta_eccentricity": 0.00394245,
        "meta_inclination": 73.8227,
        "meta_ra_of_asc_node": 197.9673,
        "meta_arg_of_pericenter": 231.9462,
        "meta_mean_anomaly": 306.1628,
        "meta_ephemeris_type": 0,
        "meta_classification_type": "U",
        "meta_norad_cat_id": 37484,
        "meta_element_set_no": 999,
        "meta_rev_at_epoch": 65459,
        "meta_bstar": 0.0005692289,
        "meta_mean_motion_dot": 1.85e-05,
        "meta_mean_motion_ddot": 0,
        "tle_line1": "1 37484U 93036BLM 25352.31837466  .00001850  00000+0  56923-3 0  9993",
        "tle_line2": "2 37484  73.8227 197.9673 0039424 231.9462 306.1628 14.41807924654593"
      },
      "geometry": {
        "type": "Point",
        "coordinates": [
          179.9870965769562,
          -26.411272243752215
        ]
      }
    },
    {
      "type": "Feature",
      "properties": {
        "norad_id": 37486,
        "name": "COSMOS 2251 DEB",
        "group": "cosmos-2251-debris",
        "lat": -28.833910447836782,
        "lon": -75.55009443455411,
        "alt_km": 910.8101810717817,
        "timestamp": "2025-12-23T11:34:48.557975+00:00",
        "meta_object_name": "COSMOS 2251 DEB",
        "meta_object_id": "1993-036BLP",
        "meta_epoch": "2025-12-22T01:29:57.186816",
        "meta_mean_motion": 14.13400204,
        "meta_eccentricity": 0.02307676,
        "meta_inclination": 73.6926,
        "meta_ra_of_asc_node": 97.742,
        "meta_arg_of_pericenter": 324.2908,
        "meta_mean_anomaly": 225.4892,
        "meta_ephemeris_type": 0,
        "meta_classification_type": "U",
        "meta_norad_cat_id": 37486,
        "meta_element_set_no": 999,
        "meta_rev_at_epoch": 63501,
        "meta_bstar": 0.0019350142,
        "meta_mean_motion_dot": 4.66e-05,
        "meta_mean_motion_ddot": 0,
        "tle_line1": "1 37486U 93036BLP 25356.06246744  .00004660  00000+0  19350-2 0  9998",
        "tle_line2": "2 37486  73.6926  97.7420 0230767 324.2908 225.4892 14.13400204635011"
      },
      "geometry": {
        "type": "Point",
        "coordinates": [
          -75.55009443455411,
          -28.833910447836782
        ]
      }
    }
  ]
}